[{"OBJECT_NAME":"STARLINK-35881","OBJECT_ID":"2025-280K","EPOCH":"2026-03-09T23:15:17.063136","MEAN_MOTION":14.9839933,"ECCENTRICITY":0.00016193,"INCLINATION":70.0042,"RA_OF_ASC_NODE":333.92,"ARG_OF_PERICENTER":218.1502,"MEAN_ANOMALY":141.9542,"EPHEMERIS_TYPE":0,"CLASSIFICATION_TYPE":"U","NORAD_CAT_ID":66830,"ELEMENT_SET_NO":999,"REV_AT_EPOCH":1611,"BSTAR":0.0034462676,"MEAN_MOTION_DOT":0.00041343,"MEAN_MOTION_DDOT":0},{"OBJECT_NAME":"SL-16 DEB","OBJECT_ID":"1992-093HT","EPOCH":"2026-03-09T09:11:57.457824","MEAN_MOTION":14.90422202,"ECCENTRICITY":0.00468492,"INCLINATION":71.3296,"RA_OF_ASC_NODE":183.274,"ARG_OF_PERICENTER":9.9042,"MEAN_ANOMALY":350.3034,"EPHEMERIS_TYPE":0,"CLASSIFICATION_TYPE":"U","NORAD_CAT_ID":22571,"ELEMENT_SET_NO":999,"REV_AT_EPOCH":69043,"BSTAR":0.0054819504,"MEAN_MOTION_DOT":0.00054956,"MEAN_MOTION_DDOT":0}]
